{
 "generated_at": "2026-07-24T07:31:19Z",
 "sources": [
  {
   "name": "CelesTrak",
   "url": "https://celestrak.org/NORAD/elements/",
   "license": "frei verfügbar; Attribution. Ursprünglich USSPACECOM/Space-Track."
  },
  {
   "name": "GCAT (J. McDowell, planet4589.org)",
   "url": "https://planet4589.org/space/gcat/",
   "license": "CC-BY 4.0"
  }
 ],
 "satellites": [
  {
   "norad": 41790,
   "name": "SCATSAT 1",
   "intl": "2016-059H",
   "group": "resource",
   "gcat": {
    "class": null,
    "category": null,
    "owner": null,
    "state": null
   },
   "omm": {
    "OBJECT_NAME": "SCATSAT 1",
    "OBJECT_ID": "2016-059H",
    "EPOCH": "2026-07-23T14:20:24.598752",
    "MEAN_MOTION": 14.79603582,
    "ECCENTRICITY": 0.00557,
    "INCLINATION": 98.1171,
    "RA_OF_ASC_NODE": 268.7361,
    "ARG_OF_PERICENTER": 129.9347,
    "MEAN_ANOMALY": 230.6778,
    "EPHEMERIS_TYPE": 0,
    "CLASSIFICATION_TYPE": "U",
    "NORAD_CAT_ID": 41790,
    "ELEMENT_SET_NO": 999,
    "REV_AT_EPOCH": 10697,
    "BSTAR": 0.00016099,
    "MEAN_MOTION_DOT": 0.00001181,
    "MEAN_MOTION_DDOT": 0
   }
  },
  {
   "norad": 22490,
   "name": "SCD 1",
   "intl": "1993-009B",
   "group": "resource",
   "gcat": {
    "class": "C",
    "category": "COM",
    "owner": "INPE",
    "state": "BR"
   },
   "omm": {
    "OBJECT_NAME": "SCD 1",
    "OBJECT_ID": "1993-009B",
    "EPOCH": "2026-07-23T18:07:08.073120",
    "MEAN_MOTION": 14.46131271,
    "ECCENTRICITY": 0.0041896,
    "INCLINATION": 24.9709,
    "RA_OF_ASC_NODE": 341.7909,
    "ARG_OF_PERICENTER": 164.7369,
    "MEAN_ANOMALY": 334.4973,
    "EPHEMERIS_TYPE": 0,
    "CLASSIFICATION_TYPE": "U",
    "NORAD_CAT_ID": 22490,
    "ELEMENT_SET_NO": 999,
    "REV_AT_EPOCH": 76641,
    "BSTAR": 0.000052997,
    "MEAN_MOTION_DOT": 0.00000381,
    "MEAN_MOTION_DDOT": 0
   }
  },
  {
   "norad": 25504,
   "name": "SCD 2",
   "intl": "1998-060A",
   "group": "resource",
   "gcat": {
    "class": "C",
    "category": "COM",
    "owner": "INPE",
    "state": "BR"
   },
   "omm": {
    "OBJECT_NAME": "SCD 2",
    "OBJECT_ID": "1998-060A",
    "EPOCH": "2026-07-23T08:01:40.139904",
    "MEAN_MOTION": 14.45536636,
    "ECCENTRICITY": 0.0016896,
    "INCLINATION": 24.9935,
    "RA_OF_ASC_NODE": 209.2393,
    "ARG_OF_PERICENTER": 144.3748,
    "MEAN_ANOMALY": 238.66,
    "EPHEMERIS_TYPE": 0,
    "CLASSIFICATION_TYPE": "U",
    "NORAD_CAT_ID": 25504,
    "ELEMENT_SET_NO": 999,
    "REV_AT_EPOCH": 46556,
    "BSTAR": 0.000041078,
    "MEAN_MOTION_DOT": 0.00000329,
    "MEAN_MOTION_DDOT": 0
   }
  },
  {
   "norad": 39634,
   "name": "SENTINEL-1A",
   "intl": "2014-016A",
   "group": "resource",
   "gcat": {
    "class": null,
    "category": null,
    "owner": null,
    "state": null
   },
   "omm": {
    "OBJECT_NAME": "SENTINEL-1A",
    "OBJECT_ID": "2014-016A",
    "EPOCH": "2026-07-23T17:03:02.611296",
    "MEAN_MOTION": 14.59174326,
    "ECCENTRICITY": 0.0001398,
    "INCLINATION": 98.1701,
    "RA_OF_ASC_NODE": 211.7058,
    "ARG_OF_PERICENTER": 88.9672,
    "MEAN_ANOMALY": 271.1688,
    "EPHEMERIS_TYPE": 0,
    "CLASSIFICATION_TYPE": "U",
    "NORAD_CAT_ID": 39634,
    "ELEMENT_SET_NO": 999,
    "REV_AT_EPOCH": 65534,
    "BSTAR": 0.000017216,
    "MEAN_MOTION_DOT": 3.5e-7,
    "MEAN_MOTION_DDOT": 0
   }
  },
  {
   "norad": 62261,
   "name": "SENTINEL-1C",
   "intl": "2024-235A",
   "group": "sar",
   "gcat": {
    "class": "C",
    "category": "IMG-R",
    "owner": "COPERN/ESA",
    "state": "I-EU"
   },
   "omm": {
    "OBJECT_NAME": "SENTINEL-1C",
    "OBJECT_ID": "2024-235A",
    "EPOCH": "2026-07-23T19:38:22.155936",
    "MEAN_MOTION": 14.59197832,
    "ECCENTRICITY": 0.0001387,
    "INCLINATION": 98.183,
    "RA_OF_ASC_NODE": 211.6072,
    "ARG_OF_PERICENTER": 88.1017,
    "MEAN_ANOMALY": 272.0341,
    "EPHEMERIS_TYPE": 0,
    "CLASSIFICATION_TYPE": "U",
    "NORAD_CAT_ID": 62261,
    "ELEMENT_SET_NO": 999,
    "REV_AT_EPOCH": 8675,
    "BSTAR": 0.000032313,
    "MEAN_MOTION_DOT": 0.00000107,
    "MEAN_MOTION_DDOT": 0
   }
  },
  {
   "norad": 66315,
   "name": "SENTINEL-1D",
   "intl": "2025-251A",
   "group": "sar",
   "gcat": {
    "class": "C",
    "category": "IMG-R",
    "owner": "COPERN/ESA",
    "state": "I-EU"
   },
   "omm": {
    "OBJECT_NAME": "SENTINEL-1D",
    "OBJECT_ID": "2025-251A",
    "EPOCH": "2026-07-23T10:35:30.397056",
    "MEAN_MOTION": 14.59198373,
    "ECCENTRICITY": 0.0001391,
    "INCLINATION": 98.1829,
    "RA_OF_ASC_NODE": 211.2906,
    "ARG_OF_PERICENTER": 93.9921,
    "MEAN_ANOMALY": 266.1438,
    "EPHEMERIS_TYPE": 0,
    "CLASSIFICATION_TYPE": "U",
    "NORAD_CAT_ID": 66315,
    "ELEMENT_SET_NO": 999,
    "REV_AT_EPOCH": 3801,
    "BSTAR": 0.000021686,
    "MEAN_MOTION_DOT": 5.6e-7,
    "MEAN_MOTION_DDOT": 0
   }
  },
  {
   "norad": 40697,
   "name": "SENTINEL-2A",
   "intl": "2015-028A",
   "group": "resource",
   "gcat": {
    "class": "C",
    "category": "IMG",
    "owner": "COPERN/ESA",
    "state": "I-EU"
   },
   "omm": {
    "OBJECT_NAME": "SENTINEL-2A",
    "OBJECT_ID": "2015-028A",
    "EPOCH": "2026-07-23T20:35:37.097664",
    "MEAN_MOTION": 14.30815619,
    "ECCENTRICITY": 0.000135,
    "INCLINATION": 98.567,
    "RA_OF_ASC_NODE": 279.1864,
    "ARG_OF_PERICENTER": 95.9931,
    "MEAN_ANOMALY": 264.1406,
    "EPHEMERIS_TYPE": 0,
    "CLASSIFICATION_TYPE": "U",
    "NORAD_CAT_ID": 40697,
    "ELEMENT_SET_NO": 999,
    "REV_AT_EPOCH": 57897,
    "BSTAR": -0.000021125,
    "MEAN_MOTION_DOT": -9.9e-7,
    "MEAN_MOTION_DDOT": 0
   }
  },
  {
   "norad": 42063,
   "name": "SENTINEL-2B",
   "intl": "2017-013A",
   "group": "resource",
   "gcat": {
    "class": "C",
    "category": "IMG",
    "owner": "COPERN/ESA",
    "state": "I-EU"
   },
   "omm": {
    "OBJECT_NAME": "SENTINEL-2B",
    "OBJECT_ID": "2017-013A",
    "EPOCH": "2026-07-23T20:25:15.583584",
    "MEAN_MOTION": 14.30816223,
    "ECCENTRICITY": 0.0001239,
    "INCLINATION": 98.5677,
    "RA_OF_ASC_NODE": 279.1051,
    "ARG_OF_PERICENTER": 92.2066,
    "MEAN_ANOMALY": 267.9259,
    "EPHEMERIS_TYPE": 0,
    "CLASSIFICATION_TYPE": "U",
    "NORAD_CAT_ID": 42063,
    "ELEMENT_SET_NO": 999,
    "REV_AT_EPOCH": 48988,
    "BSTAR": -0.000023985,
    "MEAN_MOTION_DOT": -0.00000106,
    "MEAN_MOTION_DDOT": 0
   }
  },
  {
   "norad": 60989,
   "name": "SENTINEL-2C",
   "intl": "2024-157A",
   "group": "resource",
   "gcat": {
    "class": "C",
    "category": "IMG",
    "owner": "COPERN/ESA",
    "state": "I-EU"
   },
   "omm": {
    "OBJECT_NAME": "SENTINEL-2C",
    "OBJECT_ID": "2024-157A",
    "EPOCH": "2026-07-23T16:13:31.806912",
    "MEAN_MOTION": 14.30817474,
    "ECCENTRICITY": 0.0001057,
    "INCLINATION": 98.5678,
    "RA_OF_ASC_NODE": 278.9391,
    "ARG_OF_PERICENTER": 109.0448,
    "MEAN_ANOMALY": 251.085,
    "EPHEMERIS_TYPE": 0,
    "CLASSIFICATION_TYPE": "U",
    "NORAD_CAT_ID": 60989,
    "ELEMENT_SET_NO": 999,
    "REV_AT_EPOCH": 9820,
    "BSTAR": 0.000044422,
    "MEAN_MOTION_DOT": 7.3e-7,
    "MEAN_MOTION_DDOT": 0
   }
  },
  {
   "norad": 41335,
   "name": "SENTINEL-3A",
   "intl": "2016-011A",
   "group": "resource",
   "gcat": {
    "class": "C",
    "category": "IMG",
    "owner": "COPERN/ESA",
    "state": "I-EU"
   },
   "omm": {
    "OBJECT_NAME": "SENTINEL-3A",
    "OBJECT_ID": "2016-011A",
    "EPOCH": "2026-07-23T19:47:02.461056",
    "MEAN_MOTION": 14.26736224,
    "ECCENTRICITY": 0.0001287,
    "INCLINATION": 98.623,
    "RA_OF_ASC_NODE": 271.6781,
    "ARG_OF_PERICENTER": 86.8623,
    "MEAN_ANOMALY": 273.2705,
    "EPHEMERIS_TYPE": 0,
    "CLASSIFICATION_TYPE": "U",
    "NORAD_CAT_ID": 41335,
    "ELEMENT_SET_NO": 999,
    "REV_AT_EPOCH": 54328,
    "BSTAR": 0.000080335,
    "MEAN_MOTION_DOT": 0.00000151,
    "MEAN_MOTION_DDOT": 0
   }
  }
 ]
}
